315P/LONEOS,e,17.8227,69.1396,65.6317,4.940932,0.0897410,0.52249183,117.3261,07/02.0/2020,2000,g 11.0,4.0
# From MPC 92279
316P/LONEOS-Christensen,e,9.8779,246.7533,193.8228,4.348964,0.1086739,0.16018786,185.9310,07/02.0/2020,2000,g 13.5,4.0
# From MPEC 2020-C98
317P/WISE,e,11.9509,275.5198,334.9083,2.965071,0.1930418,0.57041031,343.3628,07/02.0/2020,2000,g 17.5,4.0
# From MPC102103
318P/McNaught-Hartley,e,17.8727,35.6452,313.1083,7.496415,0.0480202,0.67491749,82.2743,07/02.0/2020,2000,g  8.5,6.0
# From MPC 97499
319P/Catalina-McNaught,e,15.0956,111.3807,203.6146,3.568919,0.1461837,0.66650346,266.8188,07/02.0/2020,2000,g 15.0,4.0
# From MPC 96281
320P/McNaught,e,4.9090,295.9312,0.7712,3.093990,0.1811031,0.68572683,323.9347,07/02.0/2020,2000,g 20.5,4.0
# From MPC105243
321P/SOHO,e,20.0507,165.0411,172.7264,2.423039,0.2613145,0.98107005,0.0000,01/17.2538/2020,2000,g 20.0,4.0
# From MPC102103
322P/SOHO,e,11.4600,351.4709,56.9346,2.508361,0.2480956,0.97976589,0.0000,08/31.4938/2019,2000,g 19.0,4.0
# From MPEC 2016-Y36
323P/SOHO,e,5.3379,324.3747,353.0496,2.582304,0.2375161,0.98483738,0.0000,01/17.7581/2021,2000,g 20.0,4.0
# From MPC108598
324P/La Sagra,e,21.4220,270.6447,58.0099,3.095854,0.1809395,0.15457246,304.0233,07/02.0/2020,2000,g 13.0,4.0
# From MPC114609
325P/Yang-Gao,e,16.7001,257.5789,343.6840,3.524107,0.1489809,0.59375822,265.3952,07/02.0/2020,2000,g 14.0,4.0
# From MPC103849
326P/Hill,e,2.4707,99.8147,278.5849,4.064646,0.1202735,0.31724483,206.3514,07/02.0/2020,2000,g 13.5,4.0
# From MPC 97499
327P/Van Ness,e,36.2421,173.9714,185.0182,3.563062,0.1465443,0.56273505,243.8427,07/02.0/2020,2000,g 16.0,4.0
# From MPC109148
328P/LONEOS-Tucker,e,17.6677,341.6194,30.4826,4.196241,0.1146604,0.55155871,189.4067,07/02.0/2020,2000,g 14.5,4.0
# From MPC101101
329P/LINEAR-Catalina,e,21.6635,87.6856,343.5581,5.193250,0.0832809,0.67680898,139.5631,07/02.0/2020,2000,g 13.5,4.0
# From MPC105243
330P/Catalina,e,15.6941,293.0962,189.0128,6.633185,0.0576927,0.54879615,81.0160,07/02.0/2020,2000,g 12.0,4.0
# From MPC110497
331P/Gibbs,e,9.7401,216.7785,183.7085,3.003120,0.1893848,0.04059006,343.0600,07/02.0/2020,2000,g 12.0,4.0
# From MPEC 2016-K18
332P/Ikeya-Murakami,e,9.3807,3.7929,152.3744,3.088019,0.1816285,0.48943109,285.0824,07/02.0/2020,2000,g 18.0,4.0
# From MPEC 2016-EI8
332P-B/Ikeya-Murakami,e,9.3805,3.8028,152.3711,3.082329,0.1821317,0.48970701,359.9699,03/17.0/2016,2000,g 19.0,4.0
# From MPEC 2016-K18
332P-C/Ikeya-Murakami,e,9.3798,3.7933,152.3657,3.087985,0.1816315,0.48943650,285.0954,07/02.0/2020,2000,g 16.5,4.0
# From MPEC 2016-ED0
332P-D/Ikeya-Murakami,e,9.3761,3.7923,152.4393,3.081138,0.1822373,0.48977814,359.9486,03/17.0/2016,2000,g 19.0,4.0
# From MPEC 2016-ED0
332P-E/Ikeya-Murakami,e,9.3774,3.8228,152.2825,3.079877,0.1823493,0.48922008,359.9889,03/17.0/2016,2000,g 21.0,4.0
# From MPEC 2016-ED0
332P-F/Ikeya-Murakami,e,9.5293,3.4757,152.8203,3.163214,0.1751908,0.49918860,359.8501,03/17.0/2016,2000,g 21.0,4.0
# From MPEC 2016-ED0
332P-G/Ikeya-Murakami,e,9.2523,3.6955,154.4000,3.050519,0.1849880,0.49200362,359.9006,03/19.0/2016,2000,g 19.0,4.0
# From MPC100285
332P-H/Ikeya-Murakami,e,9.3803,3.7931,152.3664,3.088169,0.1816153,0.48947167,285.0370,07/02.0/2020,2000,g 19.0,4.0
# From MPEC 2016-ED0
332P-I/Ikeya-Murakami,e,9.3791,3.8048,152.3297,3.081767,0.1821815,0.48955490,359.9360,03/17.0/2016,2000,g 20.5,2.0
# From MPEC 2016-EI8
332P-J/Ikeya-Murakami,e,9.4296,3.6729,152.7712,3.115165,0.1792596,0.49429435,359.8613,03/17.0/2016,2000,g 20.5,2.0
# From MPEC 2020-L06
333P/LINEAR,e,131.9810,115.6262,26.0483,4.219546,0.1137118,0.73643234,176.5501,07/02.0/2020,2000,g 15.0,4.0
# From MPC115888
334P/NEAT,e,20.4974,90.7436,89.8111,6.837361,0.0551279,0.35427739,61.6700,07/02.0/2020,2000,g 10.5,4.0
# From MPC100285
335P/Gibbs,e,7.2911,330.8424,162.2369,3.578961,0.1455689,0.54515650,247.6897,07/02.0/2020,2000,g 17.0,4.0
# From MPC105244
336P/McNaught,e,17.8341,298.2251,308.7221,5.029979,0.0873685,0.44569605,108.7553,07/02.0/2020,2000,g 13.5,4.0
# From MPC115888
337P/WISE,e,15.3741,106.0721,160.9784,3.287737,0.1653326,0.49694149,239.4894,07/02.0/2020,2000,g 17.0,4.0
# From MPC104796
338P/McNaught,e,25.3687,9.7866,4.3972,3.898549,0.1280412,0.41094605,168.7388,07/02.0/2020,2000,g 12.0,4.0
# From MPC101101
339P/Gibbs,e,5.7360,172.7497,27.5252,3.695398,0.1387434,0.63594302,199.7548,07/02.0/2020,2000,g 17.0,4.0
# From MPC102957
340P/Boattini,e,2.0798,291.7289,35.7814,4.251616,0.1124276,0.28057294,148.4563,07/02.0/2020,2000,g 13.0,4.0
# From MPC109148
341P/Gibbs,e,3.7945,30.0005,312.1045,4.294732,0.1107388,0.41504222,165.6704,07/02.0/2020,2000,g 12.5,4.0
# From MPC101101
342P/SOHO,e,11.8868,32.4526,68.7266,3.043920,0.1855898,0.98332330,0.0000,10/19.0009/2021,2000,g  9.0,4.0
# From MPC109148
343P/NEAT-LONEOS,e,5.5830,257.2405,137.3742,5.462457,0.0772008,0.58367414,96.6016,07/02.0/2020,2000,g 14.0,4.0
# From MPC109148
344P/Read,e,3.4902,273.1931,140.4157,4.868132,0.0917615,0.42139928,122.9237,07/02.0/2020,2000,g 13.0,4.0
# From MPC109148
345P/LINEAR,e,2.7264,154.4983,196.3445,4.040559,0.1213506,0.22051983,175.5611,07/02.0/2020,2000,g 12.0,4.0
# From MPC110086
346P/Catalina,e,22.1851,102.4695,336.0243,4.476849,0.1040508,0.50230073,128.3945,07/02.0/2020,2000,g 14.0,4.0
# From MPC108599
347P/PANSTARRS,e,11.7477,261.0469,98.2892,3.607432,0.1438490,0.38529475,199.8287,07/02.0/2020,2000,g 15.0,4.0
# From MPC104796
348P/PANSTARRS,e,17.7339,312.9383,135.3355,3.155385,0.1758431,0.30633917,256.2777,07/02.0/2020,2000,g 14.0,4.0
# From MPC112394
349P/Lemmon,e,5.4911,331.7497,256.0479,3.571783,0.1460079,0.29950539,151.9563,07/02.0/2020,2000,g 14.0,4.0
# From MPC111775
350P/McNaught,e,7.3565,65.3977,141.0612,4.098082,0.1188046,0.09070307,109.8152,07/02.0/2020,2000,g 14.0,4.0
# From MPC105244
351P/Wiegert-PANSTARRS,e,12.7910,283.4490,352.6167,4.436700,0.1054664,0.29618416,177.9494,07/02.0/2020,2000,g 12.5,4.0
# From MPC110086
352P/Skiff,e,21.0093,28.1069,309.1182,6.634213,0.0576793,0.61808794,63.7869,07/02.0/2020,2000,g 11.5,4.0
# From MPEC 2020-AA5
353P/McNaught,e,28.4252,121.5629,230.3702,4.171490,0.1156824,0.46981264,106.8573,07/02.0/2020,2000,g 14.5,4.0
# From MPC105545
354P/LINEAR,e,5.2555,320.1291,133.0639,2.290011,0.2844119,0.12564947,18.6293,07/02.0/2020,2000,g 15.5,4.0
# From MPEC 2020-AA5
355P/LINEAR-NEAT,e,11.0349,51.4436,336.2502,3.472910,0.1522873,0.50671920,151.2726,07/02.0/2020,2000,g 15.5,2.0
# From MPC109148
356P/WISE,e,9.6344,160.7892,226.0344,4.161170,0.1161130,0.35452085,107.7651,07/02.0/2020,2000,g 14.0,4.0
# From MPC114609
357P/Hill,e,6.3093,44.5862,1.4314,4.462398,0.1045566,0.43439086,80.0126,07/02.0/2020,2000,g 15.5,4.0
# From MPEC 2020-HN5
358P/PANSTARRS,e,11.0571,85.7172,299.7411,3.148780,0.1763968,0.23800418,143.3492,07/02.0/2020,2000,g 18.0,4.0
# From MPC110086
359P/LONEOS,e,10.2647,149.7595,200.1181,4.639374,0.0986314,0.32383257,103.1797,07/02.0/2020,2000,g 13.5,4.0
# From MPC108599
360P/WISE,e,24.0936,2.1955,354.1102,3.703140,0.1383085,0.49850967,144.9742,07/02.0/2020,2000,g 19.5,6.0
# From MPC114609
361P/Spacewatch,e,13.8859,203.2564,219.1178,4.941159,0.0897348,0.43774587,65.5842,07/02.0/2020,2000,g 12.0,4.0
# From MPEC 2017-V13
362P/,e,15.5597,192.5913,53.6743,3.967291,0.1247277,0.27999099,175.6114,07/02.0/2020,2000,g 12.9,2.0
# From MPC114609
363P/Lemmon,e,4.7199,152.9399,334.4405,3.482572,0.1516540,0.55363870,125.0557,07/02.0/2020,2000,g 17.5,4.0
# From MPC114609
364P/PANSTARRS,e,12.1474,46.2126,211.9782,2.878736,0.2017907,0.72251785,149.0442,07/02.0/2020,2000,g 17.0,2.0
# From MPC111775
365P/PANSTARRS,e,9.8373,87.4147,66.2202,3.179905,0.1738132,0.57504631,151.5344,07/02.0/2020,2000,g 17.0,4.0
# From MPC114610
366P/Spacewatch,e,8.8595,70.7530,153.1719,3.495560,0.1508096,0.34855788,107.3489,07/02.0/2020,2000,g 15.0,4.0
# From MPC112395
367P/Catalina,e,8.4637,58.7151,172.9265,3.505101,0.1501942,0.28060565,111.3822,07/02.0/2020,2000,g 17.5,2.0
# From MPC114610
368P/NEAT,e,15.4837,257.9708,118.7749,5.526421,0.0758644,0.62610072,49.8180,07/02.0/2020,2000,g 14.0,4.0
# From MPC114610
369P/Hill,e,10.3098,47.3068,13.2194,4.386434,0.1072844,0.55413227,67.1571,07/02.0/2020,2000,g 15.0,4.0
# From MPC114610
370P/NEAT,e,19.3988,55.1435,356.7060,6.437362,0.0603451,0.61430952,45.4793,07/02.0/2020,2000,g 13.0,4.0
# From MPC114610
371P/LINEAR-Skiff,e,17.3778,67.3257,308.4498,4.181414,0.1152708,0.47631829,73.3536,07/02.0/2020,2000,g 16.0,4.0
# From MPEC 2019-TG9
372P/McNaught,e,9.5096,325.8206,27.1172,4.502106,0.1031764,0.15251202,64.0089,07/02.0/2020,2000,g 13.5,4.0
# From MPC114610
373P/Rinner,e,13.7583,231.9514,221.1595,3.805386,0.1327718,0.39218237,59.7539,07/02.0/2020,2000,g 14.5,4.0
# From MPC114610
374P/Larson,e,10.7598,7.9164,51.5434,4.975495,0.0888075,0.46227656,47.8068,07/02.0/2020,2000,g 14.0,4.0
# From MPC114610
375P/Hill,e,17.3620,359.9495,119.4726,5.560057,0.0751770,0.65889106,41.9990,07/02.0/2020,2000,g 16.0,4.0
# From MPEC 2020-L06
376P/LONEOS,e,1.1936,314.8342,285.3330,5.873515,0.0692400,0.51836122,19.1888,07/02.0/2020,2000,g 12.5,4.0
# From MPC115888
377P/Scotti,e,9.0221,226.0594,354.9707,6.713597,0.0566593,0.25275514,359.4726,07/02.0/2020,2000,g  9.5,4.0
# From MPEC 2019-TG9
378P/McNaught,e,19.1070,94.5172,194.1322,6.369162,0.0613170,0.46921484,353.1721,07/02.0/2020,2000,g 12.0,4.0
# From MPC115889
379P/Spacewatch,e,12.3874,183.9411,31.2627,3.528756,0.1486865,0.33898839,49.8693,07/02.0/2020,2000,g 15.0,4.0
# From MPEC 2020-KB7
380P/PANSTARRS,e,8.2532,132.9922,90.0656,4.545967,0.1016868,0.32990464,39.7753,07/02.0/2020,2000,g 12.5,4.0
# From MPEC 2019-TG9
381P/LINEAR-Spacewatch,e,28.3754,173.7872,173.1115,7.115718,0.0519249,0.68161424,14.4910,07/02.0/2020,2000,g 17.5,2.0
# From MPC115889
382P/Larson,e,7.6731,177.3905,174.3050,6.223017,0.0634896,0.29788923,318.4969,07/02.0/2020,2000,g  8.0,4.0
# From MPC118844
383P/Christensen,e,12.3216,207.8946,133.6300,3.543772,0.1477425,0.59950624,36.9023,07/02.0/2020,2000,g 18.0,4.0
# From MPEC 2020-C98
